{
 "generated_at": "2026-06-25T08:23:36Z",
 "sources": [
  {
   "name": "CelesTrak",
   "url": "https://celestrak.org/NORAD/elements/",
   "license": "frei verfügbar; Attribution. Ursprünglich USSPACECOM/Space-Track."
  },
  {
   "name": "GCAT (J. McDowell, planet4589.org)",
   "url": "https://planet4589.org/space/gcat/",
   "license": "CC-BY 4.0"
  }
 ],
 "satellites": [
  {
   "norad": 42988,
   "name": "SKYSAT-C10",
   "intl": "2017-068B",
   "group": "resource",
   "gcat": {
    "class": "B",
    "category": "IMG",
    "owner": "PLABST",
    "state": "US"
   },
   "omm": {
    "OBJECT_NAME": "SKYSAT-C10",
    "OBJECT_ID": "2017-068B",
    "EPOCH": "2026-06-24T03:19:31.787040",
    "MEAN_MOTION": 15.34737978,
    "ECCENTRICITY": 0.00011537,
    "INCLINATION": 97.4508,
    "RA_OF_ASC_NODE": 312.0542,
    "ARG_OF_PERICENTER": 103.6982,
    "MEAN_ANOMALY": 256.4389,
    "EPHEMERIS_TYPE": 0,
    "CLASSIFICATION_TYPE": "U",
    "NORAD_CAT_ID": 42988,
    "ELEMENT_SET_NO": 999,
    "REV_AT_EPOCH": 48342,
    "BSTAR": 0.00023796992,
    "MEAN_MOTION_DOT": 0.00007932,
    "MEAN_MOTION_DDOT": 0
   }
  },
  {
   "norad": 42987,
   "name": "SKYSAT-C11",
   "intl": "2017-068A",
   "group": "resource",
   "gcat": {
    "class": "B",
    "category": "IMG",
    "owner": "PLABST",
    "state": "US"
   },
   "omm": {
    "OBJECT_NAME": "SKYSAT-C11",
    "OBJECT_ID": "2017-068A",
    "EPOCH": "2026-06-23T22:18:21.417120",
    "MEAN_MOTION": 15.58202892,
    "ECCENTRICITY": 0.00005315,
    "INCLINATION": 97.4355,
    "RA_OF_ASC_NODE": 324.0557,
    "ARG_OF_PERICENTER": 115.1946,
    "MEAN_ANOMALY": 244.9365,
    "EPHEMERIS_TYPE": 0,
    "CLASSIFICATION_TYPE": "U",
    "NORAD_CAT_ID": 42987,
    "ELEMENT_SET_NO": 999,
    "REV_AT_EPOCH": 48429,
    "BSTAR": 0.00032295368,
    "MEAN_MOTION_DOT": 0.00024303,
    "MEAN_MOTION_DDOT": 0
   }
  },
  {
   "norad": 41773,
   "name": "SKYSAT-C2",
   "intl": "2016-058D",
   "group": "resource",
   "gcat": {
    "class": "B",
    "category": "IMG",
    "owner": "TBELLA",
    "state": "US"
   },
   "omm": {
    "OBJECT_NAME": "SKYSAT-C2",
    "OBJECT_ID": "2016-058D",
    "EPOCH": "2026-06-24T00:11:04.688160",
    "MEAN_MOTION": 15.42205016,
    "ECCENTRICITY": 0.00041276,
    "INCLINATION": 97.0173,
    "RA_OF_ASC_NODE": 196.8461,
    "ARG_OF_PERICENTER": 56.1352,
    "MEAN_ANOMALY": 304.0288,
    "EPHEMERIS_TYPE": 0,
    "CLASSIFICATION_TYPE": "U",
    "NORAD_CAT_ID": 41773,
    "ELEMENT_SET_NO": 999,
    "REV_AT_EPOCH": 54610,
    "BSTAR": 0.00025413621,
    "MEAN_MOTION_DOT": 0.00010831,
    "MEAN_MOTION_DDOT": 0
   }
  },
  {
   "norad": 41774,
   "name": "SKYSAT-C3",
   "intl": "2016-058E",
   "group": "resource",
   "gcat": {
    "class": "B",
    "category": "IMG",
    "owner": "TBELLA",
    "state": "US"
   },
   "omm": {
    "OBJECT_NAME": "SKYSAT-C3",
    "OBJECT_ID": "2016-058E",
    "EPOCH": "2026-06-24T00:56:38.070528",
    "MEAN_MOTION": 15.52799383,
    "ECCENTRICITY": 0.00013006,
    "INCLINATION": 96.9009,
    "RA_OF_ASC_NODE": 205.6223,
    "ARG_OF_PERICENTER": 110.646,
    "MEAN_ANOMALY": 249.4934,
    "EPHEMERIS_TYPE": 0,
    "CLASSIFICATION_TYPE": "U",
    "NORAD_CAT_ID": 41774,
    "ELEMENT_SET_NO": 999,
    "REV_AT_EPOCH": 54717,
    "BSTAR": 0.00033088545,
    "MEAN_MOTION_DOT": 0.00020416,
    "MEAN_MOTION_DDOT": 0
   }
  },
  {
   "norad": 41771,
   "name": "SKYSAT-C4",
   "intl": "2016-058B",
   "group": "resource",
   "gcat": {
    "class": "B",
    "category": "IMG",
    "owner": "TBELLA",
    "state": "US"
   },
   "omm": {
    "OBJECT_NAME": "SKYSAT-C4",
    "OBJECT_ID": "2016-058B",
    "EPOCH": "2026-06-24T07:27:00.556704",
    "MEAN_MOTION": 15.4878311,
    "ECCENTRICITY": 0.00018722,
    "INCLINATION": 96.9174,
    "RA_OF_ASC_NODE": 196.7842,
    "ARG_OF_PERICENTER": 139.6201,
    "MEAN_ANOMALY": 220.519,
    "EPHEMERIS_TYPE": 0,
    "CLASSIFICATION_TYPE": "U",
    "NORAD_CAT_ID": 41771,
    "ELEMENT_SET_NO": 999,
    "REV_AT_EPOCH": 54657,
    "BSTAR": 0.00027911783,
    "MEAN_MOTION_DOT": 0.00014912,
    "MEAN_MOTION_DDOT": 0
   }
  },
  {
   "norad": 41772,
   "name": "SKYSAT-C5",
   "intl": "2016-058C",
   "group": "resource",
   "gcat": {
    "class": "B",
    "category": "IMG",
    "owner": "TBELLA",
    "state": "US"
   },
   "omm": {
    "OBJECT_NAME": "SKYSAT-C5",
    "OBJECT_ID": "2016-058C",
    "EPOCH": "2026-06-24T01:57:12.084768",
    "MEAN_MOTION": 15.34554203,
    "ECCENTRICITY": 0.00009751,
    "INCLINATION": 97.0472,
    "RA_OF_ASC_NODE": 215.414,
    "ARG_OF_PERICENTER": 242.0219,
    "MEAN_ANOMALY": 118.0926,
    "EPHEMERIS_TYPE": 0,
    "CLASSIFICATION_TYPE": "U",
    "NORAD_CAT_ID": 41772,
    "ELEMENT_SET_NO": 999,
    "REV_AT_EPOCH": 54480,
    "BSTAR": 0.000202402,
    "MEAN_MOTION_DOT": 0.00006701,
    "MEAN_MOTION_DDOT": 0
   }
  },
  {
   "norad": 42992,
   "name": "SKYSAT-C6",
   "intl": "2017-068F",
   "group": "resource",
   "gcat": {
    "class": "B",
    "category": "IMG",
    "owner": "PLABST",
    "state": "US"
   },
   "omm": {
    "OBJECT_NAME": "SKYSAT-C6",
    "OBJECT_ID": "2017-068F",
    "EPOCH": "2026-06-24T03:00:48.746880",
    "MEAN_MOTION": 15.34065078,
    "ECCENTRICITY": 0.0005186,
    "INCLINATION": 97.4567,
    "RA_OF_ASC_NODE": 312.8004,
    "ARG_OF_PERICENTER": 132.178,
    "MEAN_ANOMALY": 227.9904,
    "EPHEMERIS_TYPE": 0,
    "CLASSIFICATION_TYPE": "U",
    "NORAD_CAT_ID": 42992,
    "ELEMENT_SET_NO": 999,
    "REV_AT_EPOCH": 48338,
    "BSTAR": 0.00021096392,
    "MEAN_MOTION_DOT": 0.00006875,
    "MEAN_MOTION_DDOT": 0
   }
  },
  {
   "norad": 42991,
   "name": "SKYSAT-C7",
   "intl": "2017-068E",
   "group": "resource",
   "gcat": {
    "class": "B",
    "category": "IMG",
    "owner": "PLABST",
    "state": "US"
   },
   "omm": {
    "OBJECT_NAME": "SKYSAT-C7",
    "OBJECT_ID": "2017-068E",
    "EPOCH": "2026-06-23T23:06:39.069216",
    "MEAN_MOTION": 15.37041944,
    "ECCENTRICITY": 0.00071268,
    "INCLINATION": 97.4536,
    "RA_OF_ASC_NODE": 312.6923,
    "ARG_OF_PERICENTER": 87.0005,
    "MEAN_ANOMALY": 273.2054,
    "EPHEMERIS_TYPE": 0,
    "CLASSIFICATION_TYPE": "U",
    "NORAD_CAT_ID": 42991,
    "ELEMENT_SET_NO": 999,
    "REV_AT_EPOCH": 48341,
    "BSTAR": 0.00025542991,
    "MEAN_MOTION_DOT": 0.00009182,
    "MEAN_MOTION_DDOT": 0
   }
  },
  {
   "norad": 42990,
   "name": "SKYSAT-C8",
   "intl": "2017-068D",
   "group": "resource",
   "gcat": {
    "class": "B",
    "category": "IMG",
    "owner": "PLABST",
    "state": "US"
   },
   "omm": {
    "OBJECT_NAME": "SKYSAT-C8",
    "OBJECT_ID": "2017-068D",
    "EPOCH": "2026-06-24T02:23:01.153824",
    "MEAN_MOTION": 15.37092162,
    "ECCENTRICITY": 0.00013861,
    "INCLINATION": 97.4524,
    "RA_OF_ASC_NODE": 311.8407,
    "ARG_OF_PERICENTER": 95.7828,
    "MEAN_ANOMALY": 264.3575,
    "EPHEMERIS_TYPE": 0,
    "CLASSIFICATION_TYPE": "U",
    "NORAD_CAT_ID": 42990,
    "ELEMENT_SET_NO": 999,
    "REV_AT_EPOCH": 48337,
    "BSTAR": 0.00025308754,
    "MEAN_MOTION_DOT": 0.00009105,
    "MEAN_MOTION_DDOT": 0
   }
  },
  {
   "norad": 42989,
   "name": "SKYSAT-C9",
   "intl": "2017-068C",
   "group": "resource",
   "gcat": {
    "class": "B",
    "category": "IMG",
    "owner": "PLABST",
    "state": "US"
   },
   "omm": {
    "OBJECT_NAME": "SKYSAT-C9",
    "OBJECT_ID": "2017-068C",
    "EPOCH": "2026-06-24T02:51:43.620768",
    "MEAN_MOTION": 15.41711307,
    "ECCENTRICITY": 0.0009564,
    "INCLINATION": 97.4427,
    "RA_OF_ASC_NODE": 313.0357,
    "ARG_OF_PERICENTER": 111.4507,
    "MEAN_ANOMALY": 248.7761,
    "EPHEMERIS_TYPE": 0,
    "CLASSIFICATION_TYPE": "U",
    "NORAD_CAT_ID": 42989,
    "ELEMENT_SET_NO": 999,
    "REV_AT_EPOCH": 48382,
    "BSTAR": 0.00029003361,
    "MEAN_MOTION_DOT": 0.0001218,
    "MEAN_MOTION_DDOT": 0
   }
  }
 ]
}
